{"type":"FeatureCollection","features":[{"type":"Feature","properties":{"id":"kharkiv_ring_road","name":"Кільцева дорога","kind":"linear_reference_boundary","vertex_count":113},"geometry":{"type":"Polygon","coordinates":[[[36.1546244482637,49.89354711755491],[36.15602964912495,49.8944715968744],[36.15861438067504,49.89609403577597],[36.15976133042857,49.89722207084572],[36.16017451582366,49.89806689957479],[36.16081576541094,49.90008868724775],[36.16201482205092,49.90167753340091],[36.16998134348484,49.90531619531312],[36.18912884299463,49.91144978641167],[36.19425110460707,49.91282712940203],[36.19708928166812,49.9133672916013],[36.20951435022535,49.911836188994],[36.22585318450425,49.91210479989618],[36.25014049845914,49.91377075112753],[36.25582764548485,49.91401202787954],[36.2585895773616,49.91475215452284],[36.2612249509972,49.9158438732648],[36.26230859166905,49.91676482349129],[36.26800847106246,49.9243636917202],[36.27465664389742,49.91700244294864],[36.28928018683202,49.88811433839947],[36.29688883386812,49.88341100093763],[36.31600259380869,49.88068131271147],[36.32415660953188,49.87965336044093],[36.33099580013612,49.87926756986867],[36.33511388186165,49.87940003286854],[36.34059964802855,49.88008173275587],[36.34736437364251,49.88100777803514],[36.36085330474555,49.8830530354424],[36.37555904628903,49.88467581060046],[36.38244387700641,49.88600603010983],[36.39144095790796,49.89042350163979],[36.3979948797266,49.89429623530143],[36.40099631622122,49.89729657698798],[36.402757831122,49.90107864166693],[36.40394878102526,49.90926295359083],[36.40577768287814,49.91394174287315],[36.40952414019676,49.92070122814827],[36.41200007820348,49.92401799955355],[36.414640331165,49.92655746635904],[36.41627107861225,49.92732663380929],[36.42874343307616,49.92940563527672],[36.4318044675606,49.93092615837914],[36.43367048000614,49.93394305688405],[36.43572036725781,49.93741629986711],[36.43643376046499,49.94216745084369],[36.43582450826473,49.9463422082321],[36.40970184201787,50.00844027420823],[36.40577984394131,50.01227190183342],[36.38634358841594,50.02753964055798],[36.36181491860242,50.05345943685023],[36.35863438858188,50.05664958164292],[36.3548803176885,50.06018271463195],[36.35269632774538,50.06194257095277],[36.32047353192215,50.08404015301847],[36.31665194455466,50.08654580769179],[36.31230009133019,50.08868361003559],[36.30621767527201,50.09066150100661],[36.29971710884632,50.0922441992444],[36.29211400367163,50.09501906104461],[36.28501327537038,50.09772396169001],[36.27913025011222,50.09962849050051],[36.2717522503524,50.10098087380969],[36.26421041929349,50.10220790478681],[36.25898484000354,50.10175989977944],[36.2556400932599,50.10065274506117],[36.25252690549376,50.09888598716763],[36.2452826299052,50.09315994641248],[36.24245189002494,50.09208733516473],[36.23119659907249,50.08939642728522],[36.2249255058581,50.08795867316362],[36.22095332340561,50.08615267555993],[36.21802123863068,50.08441780587108],[36.20886674653456,50.07631333404479],[36.20133979416877,50.06660854398254],[36.19804573021091,50.06378997257789],[36.18912382077756,50.05807310395245],[36.18312568761802,50.05457936036441],[36.1793686094535,50.0534408436756],[36.15026333613637,50.0439582388835],[36.14566418052088,50.04201611537612],[36.14308667948664,50.04076367560704],[36.14033000810683,50.03886635814046],[36.13728646918393,50.0363776194237],[36.13524111918431,50.03376533003868],[36.13302967991907,50.03095494127046],[36.13117822892483,50.02740795557151],[36.1304464933141,50.02457456317058],[36.12887280424171,50.00556058113934],[36.12730815026623,49.98374518688973],[36.12710373841818,49.97661085691106],[36.1273854496449,49.97439198288684],[36.12845289177341,49.97091580846708],[36.12958377118919,49.96670086896901],[36.12978109927016,49.96357426066714],[36.12938018377114,49.96026446409108],[36.12892573419481,49.95494530032926],[36.12954562310689,49.953567405986],[36.1322647977749,49.95069883682604],[36.13481668105367,49.94820896730163],[36.13586254897854,49.94661619641256],[36.13636952191645,49.94517223382804],[36.13630102786939,49.94361134706992],[36.13491079994672,49.93920409201583],[36.13256508424352,49.93294852532924],[36.13136894784139,49.92869208267792],[36.13018869932711,49.92576471689108],[36.13013758460965,49.92349874869358],[36.1404109521014,49.90592180676801],[36.14237858204925,49.90266587656762],[36.14621884632907,49.89820193378434],[36.15312071058736,49.89364156735772],[36.1546244482637,49.89354711755491]]]}}]}