{"type":"FeatureCollection","features":[{"type":"Feature","geometry":{"type":"Polygon","coordinates":[[[34.940825,50.152587],[34.932788,50.134707],[34.937373,50.095709],[34.949441,50.096703],[34.950478,50.094276],[34.955889,50.093287],[34.957246,50.082447],[34.962114,50.081296],[34.964895,50.074611],[34.938078,50.061823],[34.934368,50.054553],[34.902243,50.032075],[34.88089,50.006401],[34.863717,49.990975],[34.856123,49.986563],[34.866641,49.958202],[34.870257,49.957332],[34.869845,49.955675],[34.863201,49.954438],[34.859465,49.949628],[34.868035,49.9484],[34.873049,49.944759],[34.877527,49.944133],[34.893099,49.932121],[34.912464,49.935269],[34.939418,49.903484],[34.957656,49.89095],[34.970507,49.885255],[34.980352,49.889777],[35.014287,49.875984],[35.03376,49.887336],[35.063756,49.885361],[35.063442,49.881745],[35.054092,49.88057],[35.056036,49.873676],[35.046536,49.872316],[35.067974,49.858625],[35.07382,49.858038],[35.085088,49.860026],[35.094545,49.859168],[35.105492,49.857609],[35.119135,49.851357],[35.131041,49.855039],[35.140056,49.859695],[35.164069,49.853497],[35.168003,49.847738],[35.198847,49.840188],[35.196337,49.835608],[35.208543,49.834081],[35.219374,49.829652],[35.215517,49.817568],[35.217482,49.810779],[35.222186,49.807042],[35.219478,49.804276],[35.213334,49.803147],[35.209949,49.805535],[35.205929,49.804047],[35.204309,49.801495],[35.199593,49.800448],[35.203909,49.796735],[35.200335,49.795903],[35.200867,49.794743],[35.211454,49.789093],[35.206006,49.781918],[35.21227,49.771594],[35.206279,49.763616],[35.205404,49.756484],[35.20968,49.753233],[35.21119,49.748713],[35.207708,49.746743],[35.222981,49.736641],[35.259357,49.733433],[35.264872,49.714692],[35.256847,49.71454],[35.252086,49.712744],[35.248879,49.715067],[35.242265,49.713032],[35.245277,49.709668],[35.251248,49.711467],[35.254971,49.711017],[35.255762,49.709329],[35.243662,49.693517],[35.265431,49.685191],[35.298657,49.686687],[35.33059,49.68128],[35.344683,49.665021],[35.390942,49.667204],[35.391074,49.669778],[35.420368,49.671088],[35.426168,49.67319],[35.433372,49.673449],[35.434266,49.665959],[35.423875,49.663677],[35.425637,49.656041],[35.441307,49.643845],[35.452331,49.630535],[35.464543,49.603221],[35.485682,49.572013],[35.474894,49.568115],[35.475287,49.565837],[35.409976,49.561536],[35.406389,49.559937],[35.404941,49.555371],[35.408614,49.552065],[35.426806,49.549619],[35.424989,49.541328],[35.433445,49.540073],[35.428665,49.526659],[35.484595,49.516505],[35.491078,49.508284],[35.481305,49.484072],[35.462823,49.487107],[35.461701,49.483681],[35.33168,49.50491],[35.327371,49.495968],[35.331196,49.4949],[35.31597,49.456251],[35.348462,49.450708],[35.353743,49.446562],[35.363886,49.446971],[35.347996,49.404825],[35.375321,49.398218],[35.357949,49.381994],[35.340872,49.390738],[35.319316,49.374797],[35.338544,49.364719],[35.279203,49.318126],[35.288154,49.29636],[35.278972,49.291505],[35.280334,49.289422],[35.276576,49.287707],[35.278572,49.284413],[35.27296,49.28351],[35.271222,49.277321],[35.25833,49.282407],[35.262674,49.289101],[35.241304,49.29705],[35.216763,49.298489],[35.214791,49.295564],[35.170548,49.295779],[35.124637,49.302746],[35.113717,49.301965],[35.108105,49.300158],[35.099148,49.300662],[35.096363,49.302143],[35.091238,49.300609],[35.079609,49.308718],[35.076381,49.318084],[35.036841,49.331628],[35.024399,49.325455],[35.018998,49.318358],[35.023909,49.31709],[35.011201,49.300427],[35.006373,49.302034],[34.980373,49.250186],[35.017895,49.150774],[35.043255,49.155294],[35.050195,49.166026],[35.047917,49.174161],[35.053121,49.176993],[35.056723,49.176338],[35.056912,49.174849],[35.061172,49.176254],[35.061104,49.17411],[35.075604,49.170146],[35.069377,49.165325],[35.071886,49.159289],[35.079848,49.162206],[35.080622,49.161234],[35.079879,49.15625],[35.07486,49.154345],[35.075821,49.149088],[35.079306,49.147821],[35.082667,49.141914],[35.086539,49.141347],[35.091542,49.142877],[35.087344,49.143809],[35.086895,49.149675],[35.092332,49.15082],[35.096498,49.15394],[35.094129,49.154234],[35.095306,49.155429],[35.105497,49.158357],[35.105668,49.156777],[35.10968,49.15704],[35.12173,49.161882],[35.120088,49.162753],[35.122365,49.164434],[35.12396,49.163664],[35.122935,49.161486],[35.12744,49.158565],[35.129911,49.159287],[35.128455,49.161357],[35.136724,49.1588],[35.136658,49.157496],[35.131587,49.15572],[35.132157,49.153564],[35.143996,49.150061],[35.154543,49.153105],[35.157292,49.155104],[35.154401,49.153986],[35.153919,49.155183],[35.161629,49.161056],[35.173124,49.16177],[35.177007,49.158857],[35.187947,49.162548],[35.199119,49.156204],[35.207505,49.153744],[35.209885,49.150823],[35.208684,49.149504],[35.19751,49.150186],[35.189795,49.147818],[35.188467,49.144953],[35.190507,49.143603],[35.188562,49.141807],[35.190613,49.141846],[35.191235,49.140258],[35.189771,49.138246],[35.196972,49.138728],[35.200474,49.136186],[35.228284,49.126679],[35.225175,49.12428],[35.21519,49.125831],[35.211272,49.124532],[35.208241,49.117773],[35.197553,49.118182],[35.192919,49.1143],[35.19102,49.115209],[35.190287,49.110238],[35.195775,49.108148],[35.204933,49.10887],[35.218208,49.107077],[35.221503,49.10533],[35.223045,49.101538],[35.227291,49.102464],[35.226583,49.100792],[35.228257,49.1006],[35.237227,49.110204],[35.237608,49.114115],[35.243347,49.113884],[35.246636,49.111654],[35.257845,49.113386],[35.258796,49.106367],[35.268149,49.104666],[35.269147,49.096142],[35.275923,49.090747],[35.279425,49.091087],[35.280875,49.096399],[35.283446,49.095461],[35.282955,49.090753],[35.286778,49.094257],[35.291619,49.093873],[35.292531,49.095052],[35.30097,49.08902],[35.304534,49.092033],[35.306971,49.091969],[35.310536,49.087842],[35.312715,49.077666],[35.311429,49.076043],[35.307044,49.07601],[35.307701,49.073276],[35.304845,49.073132],[35.301886,49.069387],[35.313103,49.066511],[35.316477,49.068338],[35.322686,49.062489],[35.32708,49.063549],[35.328618,49.06175],[35.334763,49.061303],[35.335598,49.058447],[35.344316,49.054065],[35.342849,49.051186],[35.337927,49.049571],[35.342086,49.045561],[35.35208,49.041048],[35.365431,49.040617],[35.366003,49.037359],[35.374975,49.032339],[35.377859,49.033477],[35.386395,49.026784],[35.401249,49.030448],[35.402121,49.028105],[35.405386,49.028105],[35.406321,49.026536],[35.402696,49.024315],[35.405385,49.01925],[35.400007,49.019018],[35.408649,49.013051],[35.411347,49.012358],[35.416255,49.014724],[35.420336,49.012831],[35.423431,49.014001],[35.42706,49.010727],[35.430316,49.013873],[35.438741,49.011178],[35.435326,49.007254],[35.436145,49.004435],[35.443113,49.000743],[35.44734,49.000875],[35.450026,48.997667],[35.452493,48.998551],[35.459147,48.997243],[35.460295,48.995634],[35.456052,48.990409],[35.458239,48.988121],[35.468835,48.988149],[35.473638,48.984305],[35.473744,48.981315],[35.477533,48.979124],[35.485558,48.981381],[35.48856,48.980208],[35.489032,48.979005],[35.485277,48.978474],[35.485817,48.975862],[35.483715,48.974158],[35.485502,48.972594],[35.495855,48.978076],[35.502048,48.978076],[35.508253,48.981706],[35.509433,48.984229],[35.512603,48.981042],[35.530543,48.9777],[35.529655,48.981956],[35.538288,48.981927],[35.541042,48.978327],[35.546954,48.976541],[35.553845,48.975929],[35.5585,48.977487],[35.561039,48.973686],[35.570343,48.978548],[35.572915,48.97356],[35.578007,48.974871],[35.581306,48.980403],[35.585085,48.982293],[35.58444,48.987213],[35.589959,48.984612],[35.596098,48.986733],[35.59803,48.98277],[35.603439,48.981182],[35.625954,48.983173],[35.628533,48.981451],[35.624713,48.971843],[35.628533,48.967167],[35.643675,48.966558],[35.645404,48.968085],[35.643659,48.969324],[35.647936,48.9737],[35.656552,48.973277],[35.660373,48.974526],[35.664179,48.968126],[35.668976,48.971563],[35.673542,48.972292],[35.67747,48.970908],[35.684989,48.971616],[35.686132,48.969925],[35.695116,48.967156],[35.696516,48.964397],[35.692763,48.958421],[35.695634,48.953724],[35.690242,48.950091],[35.691731,48.945135],[35.695998,48.942758],[35.697593,48.943351],[35.697616,48.948607],[35.70218,48.945566],[35.712961,48.949193],[35.716006,48.954129],[35.711779,48.957568],[35.716792,48.959576],[35.71614,48.961701],[35.718883,48.964452],[35.724197,48.966558],[35.72807,48.96408],[35.733083,48.96678],[35.736261,48.965731],[35.738959,48.96189],[35.736287,48.958542],[35.739813,48.954586],[35.738329,48.952165],[35.740465,48.949286],[35.75229,48.946673],[35.759899,48.948976],[35.757213,48.952269],[35.760181,48.955472],[35.768859,48.953007],[35.775243,48.948607],[35.781363,48.950202],[35.783786,48.95466],[35.789107,48.954417],[35.791635,48.952747],[35.78953,48.946422],[35.795002,48.94403],[35.800021,48.943757],[35.800528,48.942199],[35.797189,48.93934],[35.791576,48.938591],[35.79179,48.93452],[35.799636,48.927992],[35.807437,48.92718],[35.81499,48.929573],[35.80892,48.938803],[35.810044,48.941136],[35.81447,48.942316],[35.819943,48.940172],[35.829599,48.950149],[35.834639,48.947057],[35.844261,48.948268],[35.851522,48.94499],[35.856715,48.945049],[35.855119,48.957775],[35.879058,48.962702],[35.88386,48.97521],[35.897244,48.971955],[35.904558,48.973104],[35.909302,48.972277],[35.914781,48.968446],[35.918047,48.969165],[35.922686,48.973818],[35.929273,48.974881],[35.938783,48.971302],[35.937569,48.973914],[35.942571,48.977116],[35.940244,48.979403],[35.931958,48.978661],[35.930754,48.979919],[35.934058,48.981124],[35.938361,48.986879],[35.93795,48.991128],[35.934785,48.993847],[35.93997,48.999013],[35.989089,48.969351],[35.97739,48.959673],[36.003516,48.946356],[35.995552,48.939371],[36.043685,48.915385],[36.011734,48.888012],[36.04008,48.873533],[36.019284,48.854672],[36.041406,48.843675],[36.052984,48.844159],[36.075605,48.83324],[36.076028,48.829925],[36.073554,48.829732],[36.070412,48.826716],[36.069019,48.822802],[36.070536,48.819033],[36.065851,48.81287],[36.064996,48.808398],[36.07191,48.808866],[36.073929,48.80759],[36.08345,48.808737],[36.089294,48.807569],[36.092357,48.808816],[36.103048,48.806079],[36.106515,48.80907],[36.123537,48.808528],[36.123329,48.805135],[36.129101,48.806358],[36.159219,48.784226],[36.153197,48.781116],[36.159464,48.768094],[36.14011,48.765894],[36.161807,48.748951],[36.14304,48.724303],[36.258021,48.667061],[36.267375,48.663175],[36.267668,48.6664],[36.26923,48.66655],[36.282675,48.65924],[36.281959,48.656466],[36.266762,48.649468],[36.268449,48.648702],[36.265877,48.647627],[36.268579,48.640034],[36.26477,48.639432],[36.268807,48.637474],[36.262101,48.631321],[36.262947,48.628374],[36.258831,48.624057],[36.251578,48.624893],[36.251846,48.62095],[36.264705,48.613073],[36.319428,48.58724],[36.271346,48.543723],[36.29625,48.531178],[36.323888,48.555575],[36.355009,48.539649],[36.349731,48.53496],[36.355173,48.532287],[36.391893,48.564753],[36.381313,48.570268],[36.424106,48.611917],[36.426921,48.614279],[36.438607,48.611976],[36.445906,48.613845],[36.445662,48.614839],[36.439585,48.614076],[36.428548,48.615634],[36.442644,48.628503],[36.419336,48.634054],[36.423437,48.635065],[36.446811,48.632418],[36.482913,48.663648],[36.558132,48.623369],[36.561517,48.622832],[36.563051,48.616621],[36.578654,48.615828],[36.580729,48.60719],[36.589559,48.608037],[36.590699,48.602763],[36.65496,48.6095],[36.654016,48.616302],[36.674134,48.618389],[36.672474,48.624888],[36.702879,48.627814],[36.704013,48.622489],[36.738908,48.625949],[36.734149,48.64653],[36.728885,48.64731],[36.727573,48.652215],[36.722773,48.653529],[36.73042,48.656797],[36.725311,48.662093],[36.721705,48.662721],[36.726268,48.666195],[36.725361,48.669589],[36.72141,48.67308],[36.716371,48.674394],[36.717569,48.677459],[36.71551,48.679602],[36.719903,48.683544],[36.71922,48.687671],[36.717452,48.690063],[36.711723,48.692276],[36.717501,48.694365],[36.7256,48.694482],[36.728316,48.692773],[36.735626,48.703829],[36.726052,48.714329],[36.712214,48.743659],[36.717696,48.744689],[36.709128,48.767434],[36.691319,48.770412],[36.689346,48.776063],[36.695374,48.779086],[36.705388,48.788447],[36.719802,48.805699],[36.734564,48.804277],[36.76345,48.797061],[36.790684,48.801037],[36.783418,48.789381],[36.792219,48.785766],[36.787891,48.78021],[36.816128,48.777489],[36.820859,48.771345],[36.840914,48.772743],[36.839218,48.775697],[36.854327,48.800289],[36.92097,48.797762],[36.921415,48.794598],[36.931593,48.792507],[36.945853,48.795609],[36.966457,48.793353],[36.975658,48.790248],[36.988761,48.774756],[36.999027,48.769903],[37.001556,48.76561],[37.007996,48.765382],[37.017535,48.760031],[37.020283,48.755573],[37.030995,48.750183],[37.035857,48.745891],[37.043132,48.766255],[37.023007,48.76746],[37.023085,48.774832],[36.99491,48.78736],[37.00501,48.796878],[37.00746,48.803328],[37.018749,48.801755],[37.023844,48.817908],[37.043591,48.815055],[37.066418,48.813939],[37.067394,48.817441],[37.078348,48.817647],[37.098841,48.851049],[37.135406,48.842577],[37.137963,48.843904],[37.145877,48.841788],[37.13964,48.832619],[37.151109,48.832417],[37.1573,48.824484],[37.192088,48.814456],[37.194626,48.849535],[37.189233,48.871614],[37.193471,48.881417],[37.198169,48.881604],[37.211424,48.887864],[37.213504,48.892655],[37.224102,48.904314],[37.222631,48.908643],[37.244475,48.906499],[37.2451,48.908677],[37.266556,48.906299],[37.269406,48.922605],[37.299172,48.922944],[37.299217,48.919576],[37.312661,48.922932],[37.327997,48.921969],[37.332941,48.935205],[37.329322,48.935224],[37.327441,48.937024],[37.332989,48.94093],[37.327468,48.94194],[37.326789,48.93848],[37.320991,48.937979],[37.310879,48.942245],[37.30761,48.945469],[37.307677,48.950954],[37.320403,48.952818],[37.320033,48.957259],[37.310576,48.956988],[37.304323,48.963672],[37.304476,48.965569],[37.309559,48.966557],[37.308496,48.968502],[37.300125,48.966837],[37.295488,48.968443],[37.294684,48.971249],[37.298663,48.972002],[37.297242,48.974879],[37.301882,48.97619],[37.306971,48.980876],[37.309874,48.979676],[37.31278,48.980347],[37.313056,48.977296],[37.315016,48.977053],[37.316183,48.983609],[37.323112,48.982667],[37.324116,48.985066],[37.31319,48.986834],[37.313874,48.989699],[37.321479,48.989953],[37.334597,48.99404],[37.344909,49.003239],[37.360518,48.998458],[37.372661,48.9992],[37.371113,49.004854],[37.375678,49.026617],[37.39111,49.025563],[37.385363,49.033881],[37.388224,49.039063],[37.384961,49.048201],[37.395191,49.050866],[37.406455,49.051784],[37.41784,49.062599],[37.429936,49.060219],[37.437702,49.0608],[37.443678,49.057241],[37.450284,49.061351],[37.451189,49.053202],[37.458209,49.056817],[37.460109,49.056248],[37.465413,49.061505],[37.467711,49.055064],[37.479797,49.057496],[37.491007,49.062824],[37.49203,49.065581],[37.504809,49.070069],[37.50754,49.075586],[37.507088,49.081005],[37.499488,49.088977],[37.501908,49.092339],[37.495626,49.093057],[37.487066,49.100063],[37.495346,49.105211],[37.49825,49.103845],[37.547033,49.112226],[37.584582,49.126159],[37.57025,49.135404],[37.562948,49.133362],[37.552766,49.140634],[37.541605,49.145299],[37.550926,49.148986],[37.559712,49.144932],[37.563104,49.145545],[37.564175,49.149334],[37.555182,49.165967],[37.5434,49.168874],[37.524304,49.17642],[37.508552,49.180372],[37.501278,49.180406],[37.504728,49.184987],[37.50282,49.187244],[37.50767,49.190883],[37.513144,49.199583],[37.528643,49.207011],[37.549153,49.213027],[37.557055,49.223573],[37.569076,49.231325],[37.597327,49.230006],[37.614338,49.233294],[37.711883,49.219977],[37.797792,49.202143],[37.798041,49.209028],[37.810852,49.206442],[37.825036,49.206344],[37.824756,49.202751],[37.843423,49.201085],[37.84406,49.204424],[37.846985,49.205369],[37.849797,49.221768],[37.852249,49.2224],[37.861707,49.232896],[37.874438,49.233878],[37.865788,49.245807],[37.879587,49.247821],[37.896049,49.252761],[37.894777,49.256009],[37.91099,49.259184],[37.898534,49.270081],[37.913357,49.277192],[37.945096,49.280841],[37.958508,49.28465],[37.945968,49.303046],[37.883242,49.312901],[37.883685,49.319067],[37.8769,49.32778],[37.883904,49.341599],[37.887066,49.341819],[37.884628,49.351407],[37.896352,49.403574],[37.882103,49.414571],[37.87941,49.41276],[37.876879,49.413426],[37.879653,49.416474],[37.877273,49.418521],[37.880454,49.435752],[37.874741,49.436436],[37.876152,49.446513],[37.844746,49.445947],[37.851231,49.487234],[37.83885,49.493445],[37.845488,49.502403],[37.842074,49.507601],[37.847125,49.520251],[37.882631,49.518587],[37.905562,49.529469],[37.917777,49.533452],[37.927006,49.541646],[37.928181,49.548065],[37.884614,49.548981],[37.901444,49.573251],[37.904443,49.57071],[37.922899,49.567786],[37.924145,49.570024],[37.953938,49.569411],[37.952299,49.574635],[37.937812,49.585357],[37.935323,49.594433],[37.940736,49.594414],[37.941612,49.595521],[37.944735,49.611588],[37.974998,49.612622],[37.979082,49.625999],[37.99723,49.628232],[37.996587,49.632413],[37.989845,49.6354],[37.989466,49.639545],[37.98613,49.643532],[37.998188,49.648642],[38.047228,49.657468],[38.037105,49.66239],[38.034176,49.659301],[38.027775,49.662711],[38.031152,49.665423],[38.030871,49.667742],[38.022548,49.671935],[38.019602,49.676935],[38.012672,49.67739],[38.012296,49.678585],[38.015425,49.679012],[38.015472,49.682514],[38.011206,49.68459],[38.014843,49.686068],[38.013825,49.695765],[38.007406,49.695482],[38.000379,49.700502],[38.018147,49.705527],[38.017303,49.713874],[38.008652,49.71498],[37.997354,49.713475],[37.99108,49.715951],[37.973684,49.708567],[37.959938,49.717332],[37.950805,49.731199],[37.96806,49.759292],[37.976966,49.767421],[37.979881,49.765734],[37.983794,49.755644],[37.987679,49.755316],[37.989486,49.753124],[37.998472,49.75324],[38.010168,49.757338],[38.011788,49.765801],[38.024689,49.77299],[38.023593,49.774884],[38.034083,49.777884],[38.036204,49.783535],[38.053693,49.783527],[38.055611,49.792201],[38.039109,49.795662],[38.029427,49.803518],[38.009738,49.813019],[38.020474,49.834824],[38.01833,49.837508],[38.0446,49.839326],[38.058799,49.836988],[38.073778,49.836899],[38.080812,49.838325],[38.093615,49.846058],[38.06749,49.865452],[38.032974,49.900151],[38.022374,49.909474],[38.023419,49.916057],[38.021149,49.918606],[38.023691,49.919626],[38.02093,49.925751],[38.04372,49.932944],[38.004709,49.967425],[37.998726,49.963607],[37.980561,49.97668],[37.964579,49.978925],[37.92652,50.0338],[37.89253,50.05096],[37.86386,50.05422],[37.85099,50.05834],[37.8249,50.06847],[37.79692,50.08409],[37.75486,50.07843],[37.74336,50.09439],[37.72636,50.10727],[37.70748,50.127871],[37.71006,50.1337],[37.70164,50.13439],[37.69083,50.14246],[37.66851,50.15276],[37.66456,50.15877],[37.65512,50.16563],[37.65238,50.17044],[37.64671,50.17422],[37.64379,50.17404],[37.6407,50.17593],[37.63899,50.17988],[37.64345,50.19087],[37.6268,50.20443],[37.61495,50.21644],[37.61444,50.22005],[37.62731,50.24082],[37.62577,50.24511],[37.62749,50.26262],[37.62646,50.29335],[37.63813,50.30279],[37.63555,50.31137],[37.63006,50.31378],[37.60877,50.31652],[37.59453,50.31618],[37.58577,50.31412],[37.57702,50.30657],[37.55573,50.32974],[37.521426,50.336511],[37.50818,50.34708],[37.50509,50.3524],[37.48466,50.35652],[37.47196,50.36922],[37.46612,50.38038],[37.466392,50.405578],[37.462927,50.422742],[37.465114,50.430949],[37.477893,50.431227],[37.484704,50.434692],[37.48449,50.44493],[37.49102,50.45746],[37.47689,50.459439],[37.468887,50.453619],[37.43159,50.443445],[37.421258,50.434852],[37.412695,50.43328],[37.396718,50.4312],[37.377567,50.432631],[37.35211,50.437492],[37.332996,50.437011],[37.327272,50.435476],[37.31943,50.432862],[37.309306,50.425851],[37.299346,50.405941],[37.292486,50.401301],[37.263921,50.394056],[37.257585,50.391064],[37.256036,50.392538],[37.22178,50.379288],[37.222993,50.378062],[37.215159,50.374922],[37.181671,50.363059],[37.152979,50.356464],[37.147569,50.356476],[37.13835,50.361129],[37.102585,50.35732],[37.105455,50.353326],[37.105321,50.351851],[37.102345,50.351259],[37.070801,50.346657],[37.059255,50.347242],[37.044529,50.344956],[37.037534,50.348753],[36.93761,50.350456],[36.916077,50.346662],[36.886643,50.337945],[36.882941,50.339059],[36.882041,50.337566],[36.870278,50.337728],[36.869941,50.335967],[36.85226,50.32768],[36.83287,50.31309],[36.80969,50.31155],[36.80008,50.30605],[36.76781,50.30159],[36.76403,50.29163],[36.77158,50.2894],[36.7551,50.29043],[36.74841,50.28786],[36.75115,50.28253],[36.74892,50.28013],[36.74446,50.28047],[36.7448,50.28202],[36.73983,50.28305],[36.72867,50.27738],[36.71957,50.27738],[36.70566,50.26897],[36.70412,50.26451],[36.70069,50.26399],[36.69296,50.26914],[36.68404,50.25215],[36.67992,50.23807],[36.66429,50.22194],[36.64867,50.21765],[36.63975,50.22228],[36.61846,50.22743],[36.6152,50.22726],[36.61348,50.224],[36.59683,50.22932],[36.59889,50.23069],[36.58413,50.23636],[36.56044,50.25061],[36.56919,50.2573],[36.57795,50.2585],[36.57537,50.26022],[36.58052,50.26228],[36.57417,50.27447],[36.593802,50.275364],[36.593718,50.277935],[36.59031,50.27927],[36.58499,50.2858],[36.56181,50.28494],[36.55632,50.28133],[36.53572,50.28374],[36.5237,50.28648],[36.52285,50.28906],[36.52611,50.29352],[36.51083,50.29541],[36.5019,50.29867],[36.49641,50.30348],[36.49521,50.30279],[36.48937,50.30622],[36.48783,50.3112],[36.47341,50.31309],[36.43993,50.3112],[36.43341,50.33077],[36.42414,50.32802],[36.4068,50.31034],[36.40011,50.30708],[36.37384,50.2997],[36.37934,50.29301],[36.36303,50.28751],[36.29574,50.29163],[36.29866,50.29901],[36.28561,50.29867],[36.28458,50.30502],[36.27617,50.31635],[36.27994,50.32287],[36.27342,50.32322],[36.28372,50.33558],[36.255416,50.35539],[36.24252,50.35789],[36.23342,50.36373],[36.23085,50.3718],[36.22124,50.37781],[36.21076,50.38673],[36.20579,50.39411],[36.19326,50.40356],[36.1845,50.4063],[36.17763,50.40167],[36.17077,50.40888],[36.16064,50.43154],[36.13781,50.43772],[36.11549,50.43875],[36.09283,50.44493],[36.08665,50.44836],[36.06966,50.4463],[36.06794,50.45076],[36.03927,50.44956],[36.03361,50.44716],[36.01902,50.4451],[36.00357,50.44527],[35.99842,50.44304],[35.9749,50.44063],[35.972535,50.437534],[35.967663,50.435447],[35.961323,50.43561],[35.955855,50.433745],[35.950845,50.434958],[35.938234,50.433695],[35.936992,50.431099],[35.93289,50.430598],[35.92124,50.436958],[35.911778,50.434336],[35.906346,50.437971],[35.88976,50.43857],[35.87242,50.42244],[35.8556,50.42913],[35.83534,50.42467],[35.83174,50.43377],[35.79431,50.41386],[35.79861,50.41111],[35.806865,50.41093],[35.80702,50.4051],[35.80204,50.39738],[35.79277,50.38982],[35.756624,50.368397],[35.73818,50.35446],[35.672803,50.355041],[35.658002,50.351148],[35.65384,50.346867],[35.68033,50.34262],[35.682372,50.347586],[35.692662,50.345632],[35.688661,50.334738],[35.683001,50.335107],[35.682158,50.331402],[35.677742,50.330984],[35.673281,50.325656],[35.66034,50.326841],[35.655759,50.3124],[35.65085,50.312516],[35.650228,50.309753],[35.636483,50.313426],[35.637004,50.315],[35.624215,50.320032],[35.623329,50.321167],[35.630304,50.324436],[35.611744,50.326147],[35.593934,50.331255],[35.573428,50.319806],[35.558934,50.321236],[35.515918,50.317242],[35.535331,50.302006],[35.534135,50.298303],[35.531222,50.298314],[35.531234,50.293537],[35.529756,50.292971],[35.527971,50.294677],[35.524448,50.290114],[35.504254,50.299842],[35.496359,50.292613],[35.45832,50.309608],[35.459594,50.314929],[35.439028,50.316894],[35.436476,50.322178],[35.423487,50.335049],[35.419143,50.330188],[35.41454,50.328299],[35.414563,50.325683],[35.409593,50.322372],[35.409916,50.320974],[35.396788,50.318792],[35.379093,50.320535],[35.38017,50.311432],[35.385433,50.305924],[35.38223,50.294479],[35.330029,50.318653],[35.318732,50.313511],[35.321363,50.31155],[35.296516,50.289516],[35.324926,50.277712],[35.331105,50.276734],[35.329888,50.274118],[35.315905,50.270764],[35.300078,50.26253],[35.266127,50.265291],[35.260455,50.256987],[35.262594,50.248189],[35.259149,50.242993],[35.260389,50.234428],[35.237613,50.236451],[35.234756,50.228077],[35.199104,50.235343],[35.200246,50.238036],[35.19788,50.238183],[35.192606,50.228225],[35.148081,50.242205],[35.128303,50.226778],[35.105452,50.214484],[35.089601,50.212369],[35.07016,50.206016],[35.077005,50.200537],[35.070489,50.196604],[35.072091,50.196051],[35.067893,50.189627],[35.063129,50.186038],[35.064166,50.18279],[35.058673,50.185376],[35.041114,50.16455],[35.029683,50.165694],[35.032706,50.172794],[35.031186,50.17906],[35.032567,50.180499],[35.008485,50.185313],[35.004616,50.177719],[35.004597,50.18061],[35.002018,50.180878],[35.001545,50.182539],[34.994091,50.183924],[34.976277,50.182237],[34.961415,50.185754],[34.973455,50.164255],[34.974326,50.159181],[34.964187,50.155544],[34.940825,50.152587]]]},"properties":{"shapeName":"Kharkiv Oblast","Level":"ADM1","shapeISO":"UA-63","shapeID":"UKR-ADM1-14850775B25463015","shapeGroup":"UKR","shapeType":"ADM1"}}]}
